{
"type": "FeatureCollection",
"features": [
{ "type": "Feature", "properties": { "ST_NM": "Gujarat" }, "geometry": { "type": "Polygon", "coordinates": [[[68,20],[74,20],[74,24],[68,24],[68,20]]] }},
{ "type": "Feature", "properties": { "ST_NM": "Maharashtra" }, "geometry": { "type": "Polygon", "coordinates": [[[72,16],[80,16],[80,22],[72,22],[72,16]]] }},
{ "type": "Feature", "properties": { "ST_NM": "Rajasthan" }, "geometry": { "type": "Polygon", "coordinates": [[[70,24],[78,24],[78,30],[70,30],[70,24]]] }},
{ "type": "Feature", "properties": { "ST_NM": "Karnataka" }, "geometry": { "type": "Polygon", "coordinates": [[[74,12],[78,12],[78,18],[74,18],[74,12]]] }},
{ "type": "Feature", "properties": { "ST_NM": "Tamil Nadu" }, "geometry": { "type": "Polygon", "coordinates": [[[76,8],[80,8],[80,13],[76,13],[76,8]]] }}
]
}